UNKNOWN                 
1 81311U          26086.66258258  .00000671  00000+0  14502-3 0  9996
2 81311  98.7128 153.8072 0131478 163.4363 349.4395 14.56712185654863
UNKNOWN                 
1 81317U          26086.89985143  .00000075  00000+0  23068-3 0  9992
2 81317  67.1376 305.0674 0216764 321.0643  51.7514 13.38058486602706
UNKNOWN                 
1 81329U          26085.44629429  .00000769  00000+0  29440-3 0  9997
2 81329  65.8185 252.8345 0836355 343.0357  14.4185 13.22777555591790
UNKNOWN                 
1 81343U          26087.18085295  .00005414  00000+0  37446-3 0  9990
2 81343  85.8739 142.9588 0007381 223.2830 136.7825 15.05480457470177
UNKNOWN                 
1 81359U          26084.96263993  .00000532  00000+0  56289-3 0  9995
2 81359  66.7980 164.8957 0120320 256.9765 101.7853 13.79009914619714
UNKNOWN                 
1 81366U          26086.53428863  .00000530  00000+0  21477-3 0  9996
2 81366  65.8825 183.9701 0713881  30.5600 333.5089 13.45413471 80058
UNKNOWN                 
1 81371U          26086.74566193  .00002737  00000+0  43646-3 0  9997
2 81371  98.8110 196.6632 0069025  38.1219 322.4839 14.71303136657275
UNKNOWN                 
1 81386U          26086.40325342  .00003923  00000+0  12632-2 0  9993
2 81386  71.0460 129.2323 0091473 278.6144  80.4635 14.37509397639275
UNKNOWN                 
1 81390U          26084.96397236 -.00000367  00000+0 -23732-2 0  9992
2 81390 103.1053 345.5499 0176635 325.0175  33.9382 12.35612464512848
UNKNOWN                 
1 81392U          26086.94954141  .00002905  00000+0  27145-2 0  9998
2 81392 100.4076  90.9018 0041748 123.3598 267.2014 13.82413379616719
UNKNOWN                 
1 81405U          26073.89719008  .00001447  00000+0  11126-2 0  9996
2 81405  99.4590 128.5260 0157520 337.4444  21.9841 13.89179281574593
UNKNOWN                 
1 81427U          26086.39078570  .00000797  00000+0  48485-3 0  9997
2 81427  98.7403 330.1311 0085147 102.9516 258.1178 14.07121940566486
