CCSDS_OMM_VERS = 2.0
CREATION_DATE  = 
ORIGINATOR     = 

OBJECT_NAME    = UNKNOWN
OBJECT_ID      = 
CENTER_NAME    = EARTH
REF_FRAME      = TEME
TIME_SYSTEM    = UTC
MEAN_ELEMENT_THEORY = SGP/SGP4

EPOCH          = 2026-03-27T15:54:07.134912
MEAN_MOTION    = 14.56712185
ECCENTRICITY   = .0131478
INCLINATION    = 98.7128
RA_OF_ASC_NODE = 153.8072
ARG_OF_PERICENTER = 163.4363
MEAN_ANOMALY   = 349.4395

EPHEMERIS_TYPE = 0
CLASSIFICATION_TYPE = U
NORAD_CAT_ID   = 81311
ELEMENT_SET_NO = 999
REV_AT_EPOCH   = 65486
BSTAR          = .14502E-3
MEAN_MOTION_DOT = .671E-5
MEAN_MOTION_DDOT = 0

CCSDS_OMM_VERS = 2.0
CREATION_DATE  = 
ORIGINATOR     = 

OBJECT_NAME    = UNKNOWN
OBJECT_ID      = 
CENTER_NAME    = EARTH
REF_FRAME      = TEME
TIME_SYSTEM    = UTC
MEAN_ELEMENT_THEORY = SGP/SGP4

EPOCH          = 2026-03-27T21:35:47.163552
MEAN_MOTION    = 13.38058486
ECCENTRICITY   = .0216764
INCLINATION    = 67.1376
RA_OF_ASC_NODE = 305.0674
ARG_OF_PERICENTER = 321.0643
MEAN_ANOMALY   = 51.7514

EPHEMERIS_TYPE = 0
CLASSIFICATION_TYPE = U
NORAD_CAT_ID   = 81317
ELEMENT_SET_NO = 999
REV_AT_EPOCH   = 60270
BSTAR          = .23068E-3
MEAN_MOTION_DOT = .75E-6
MEAN_MOTION_DDOT = 0

CCSDS_OMM_VERS = 2.0
CREATION_DATE  = 
ORIGINATOR     = 

OBJECT_NAME    = UNKNOWN
OBJECT_ID      = 
CENTER_NAME    = EARTH
REF_FRAME      = TEME
TIME_SYSTEM    = UTC
MEAN_ELEMENT_THEORY = SGP/SGP4

EPOCH          = 2026-03-26T10:42:39.826656
MEAN_MOTION    = 13.22777555
ECCENTRICITY   = .0836355
INCLINATION    = 65.8185
RA_OF_ASC_NODE = 252.8345
ARG_OF_PERICENTER = 343.0357
MEAN_ANOMALY   = 14.4185

EPHEMERIS_TYPE = 0
CLASSIFICATION_TYPE = U
NORAD_CAT_ID   = 81329
ELEMENT_SET_NO = 999
REV_AT_EPOCH   = 59179
BSTAR          = .2944E-3
MEAN_MOTION_DOT = .769E-5
MEAN_MOTION_DDOT = 0

CCSDS_OMM_VERS = 2.0
CREATION_DATE  = 
ORIGINATOR     = 

OBJECT_NAME    = UNKNOWN
OBJECT_ID      = 
CENTER_NAME    = EARTH
REF_FRAME      = TEME
TIME_SYSTEM    = UTC
MEAN_ELEMENT_THEORY = SGP/SGP4

EPOCH          = 2026-03-28T04:20:25.694880
MEAN_MOTION    = 15.05480457
ECCENTRICITY   = .0007381
INCLINATION    = 85.8739
RA_OF_ASC_NODE = 142.9588
ARG_OF_PERICENTER = 223.2830
MEAN_ANOMALY   = 136.7825

EPHEMERIS_TYPE = 0
CLASSIFICATION_TYPE = U
NORAD_CAT_ID   = 81343
ELEMENT_SET_NO = 999
REV_AT_EPOCH   = 47017
BSTAR          = .37446E-3
MEAN_MOTION_DOT = .5414E-4
MEAN_MOTION_DDOT = 0

CCSDS_OMM_VERS = 2.0
CREATION_DATE  = 
ORIGINATOR     = 

OBJECT_NAME    = UNKNOWN
OBJECT_ID      = 
CENTER_NAME    = EARTH
REF_FRAME      = TEME
TIME_SYSTEM    = UTC
MEAN_ELEMENT_THEORY = SGP/SGP4

EPOCH          = 2026-03-25T23:06:12.089952
MEAN_MOTION    = 13.79009914
ECCENTRICITY   = .012032
INCLINATION    = 66.7980
RA_OF_ASC_NODE = 164.8957
ARG_OF_PERICENTER = 256.9765
MEAN_ANOMALY   = 101.7853

EPHEMERIS_TYPE = 0
CLASSIFICATION_TYPE = U
NORAD_CAT_ID   = 81359
ELEMENT_SET_NO = 999
REV_AT_EPOCH   = 61971
BSTAR          = .56289E-3
MEAN_MOTION_DOT = .532E-5
MEAN_MOTION_DDOT = 0

CCSDS_OMM_VERS = 2.0
CREATION_DATE  = 
ORIGINATOR     = 

OBJECT_NAME    = UNKNOWN
OBJECT_ID      = 
CENTER_NAME    = EARTH
REF_FRAME      = TEME
TIME_SYSTEM    = UTC
MEAN_ELEMENT_THEORY = SGP/SGP4

EPOCH          = 2026-03-27T12:49:22.537632
MEAN_MOTION    = 13.45413471
ECCENTRICITY   = .0713881
INCLINATION    = 65.8825
RA_OF_ASC_NODE = 183.9701
ARG_OF_PERICENTER = 30.5600
MEAN_ANOMALY   = 333.5089

EPHEMERIS_TYPE = 0
CLASSIFICATION_TYPE = U
NORAD_CAT_ID   = 81366
ELEMENT_SET_NO = 999
REV_AT_EPOCH   = 8005
BSTAR          = .21477E-3
MEAN_MOTION_DOT = .53E-5
MEAN_MOTION_DDOT = 0

CCSDS_OMM_VERS = 2.0
CREATION_DATE  = 
ORIGINATOR     = 

OBJECT_NAME    = UNKNOWN
OBJECT_ID      = 
CENTER_NAME    = EARTH
REF_FRAME      = TEME
TIME_SYSTEM    = UTC
MEAN_ELEMENT_THEORY = SGP/SGP4

EPOCH          = 2026-03-27T17:53:45.190752
MEAN_MOTION    = 14.71303136
ECCENTRICITY   = .0069025
INCLINATION    = 98.8110
RA_OF_ASC_NODE = 196.6632
ARG_OF_PERICENTER = 38.1219
MEAN_ANOMALY   = 322.4839

EPHEMERIS_TYPE = 0
CLASSIFICATION_TYPE = U
NORAD_CAT_ID   = 81371
ELEMENT_SET_NO = 999
REV_AT_EPOCH   = 65727
BSTAR          = .43646E-3
MEAN_MOTION_DOT = .2737E-4
MEAN_MOTION_DDOT = 0

CCSDS_OMM_VERS = 2.0
CREATION_DATE  = 
ORIGINATOR     = 

OBJECT_NAME    = UNKNOWN
OBJECT_ID      = 
CENTER_NAME    = EARTH
REF_FRAME      = TEME
TIME_SYSTEM    = UTC
MEAN_ELEMENT_THEORY = SGP/SGP4

EPOCH          = 2026-03-27T09:40:41.095488
MEAN_MOTION    = 14.37509397
ECCENTRICITY   = .0091473
INCLINATION    = 71.0460
RA_OF_ASC_NODE = 129.2323
ARG_OF_PERICENTER = 278.6144
MEAN_ANOMALY   = 80.4635

EPHEMERIS_TYPE = 0
CLASSIFICATION_TYPE = U
NORAD_CAT_ID   = 81386
ELEMENT_SET_NO = 999
REV_AT_EPOCH   = 63927
BSTAR          = .12632E-2
MEAN_MOTION_DOT = .3923E-4
MEAN_MOTION_DDOT = 0

CCSDS_OMM_VERS = 2.0
CREATION_DATE  = 
ORIGINATOR     = 

OBJECT_NAME    = UNKNOWN
OBJECT_ID      = 
CENTER_NAME    = EARTH
REF_FRAME      = TEME
TIME_SYSTEM    = UTC
MEAN_ELEMENT_THEORY = SGP/SGP4

EPOCH          = 2026-03-25T23:08:07.211904
MEAN_MOTION    = 12.35612464
ECCENTRICITY   = .0176635
INCLINATION    = 103.1053
RA_OF_ASC_NODE = 345.5499
ARG_OF_PERICENTER = 325.0175
MEAN_ANOMALY   = 33.9382

EPHEMERIS_TYPE = 0
CLASSIFICATION_TYPE = U
NORAD_CAT_ID   = 81390
ELEMENT_SET_NO = 999
REV_AT_EPOCH   = 51284
BSTAR          = -.23732E-2
MEAN_MOTION_DOT = -.367E-5
MEAN_MOTION_DDOT = 0

CCSDS_OMM_VERS = 2.0
CREATION_DATE  = 
ORIGINATOR     = 

OBJECT_NAME    = UNKNOWN
OBJECT_ID      = 
CENTER_NAME    = EARTH
REF_FRAME      = TEME
TIME_SYSTEM    = UTC
MEAN_ELEMENT_THEORY = SGP/SGP4

EPOCH          = 2026-03-27T22:47:20.377824
MEAN_MOTION    = 13.82413379
ECCENTRICITY   = .0041748
INCLINATION    = 100.4076
RA_OF_ASC_NODE = 90.9018
ARG_OF_PERICENTER = 123.3598
MEAN_ANOMALY   = 267.2014

EPHEMERIS_TYPE = 0
CLASSIFICATION_TYPE = U
NORAD_CAT_ID   = 81392
ELEMENT_SET_NO = 999
REV_AT_EPOCH   = 61671
BSTAR          = .27145E-2
MEAN_MOTION_DOT = .2905E-4
MEAN_MOTION_DDOT = 0

CCSDS_OMM_VERS = 2.0
CREATION_DATE  = 
ORIGINATOR     = 

OBJECT_NAME    = UNKNOWN
OBJECT_ID      = 
CENTER_NAME    = EARTH
REF_FRAME      = TEME
TIME_SYSTEM    = UTC
MEAN_ELEMENT_THEORY = SGP/SGP4

EPOCH          = 2026-03-14T21:31:57.222912
MEAN_MOTION    = 13.89179281
ECCENTRICITY   = .015752
INCLINATION    = 99.4590
RA_OF_ASC_NODE = 128.5260
ARG_OF_PERICENTER = 337.4444
MEAN_ANOMALY   = 21.9841

EPHEMERIS_TYPE = 0
CLASSIFICATION_TYPE = U
NORAD_CAT_ID   = 81405
ELEMENT_SET_NO = 999
REV_AT_EPOCH   = 57459
BSTAR          = .11126E-2
MEAN_MOTION_DOT = .1447E-4
MEAN_MOTION_DDOT = 0

CCSDS_OMM_VERS = 2.0
CREATION_DATE  = 
ORIGINATOR     = 

OBJECT_NAME    = UNKNOWN
OBJECT_ID      = 
CENTER_NAME    = EARTH
REF_FRAME      = TEME
TIME_SYSTEM    = UTC
MEAN_ELEMENT_THEORY = SGP/SGP4

EPOCH          = 2026-03-27T09:22:43.884480
MEAN_MOTION    = 14.07121940
ECCENTRICITY   = .0085147
INCLINATION    = 98.7403
RA_OF_ASC_NODE = 330.1311
ARG_OF_PERICENTER = 102.9516
MEAN_ANOMALY   = 258.1178

EPHEMERIS_TYPE = 0
CLASSIFICATION_TYPE = U
NORAD_CAT_ID   = 81427
ELEMENT_SET_NO = 999
REV_AT_EPOCH   = 56648
BSTAR          = .48485E-3
MEAN_MOTION_DOT = .797E-5
MEAN_MOTION_DDOT = 0

